stk.v.4.3 

BEGIN Ephemeris 
 
NumberOfEphemerisPoints		146 
ScenarioEpoch	    2 Jan 2020  8:32:55.754293799 
InterpolationMethod		Lagrange 
InterpolationOrder		5 
CentralBody				Earth 
CoordinateSystem			TEME 
CoordinateSystemEpoch	  2 Jan 2020  8:32:55.754293799 
DistanceUnit			Kilometers 
 
EphemerisTimePosVel 
 
       0.00000000   -4848.16063225   -5267.28066726       0.03634687  0.350928852 -0.310530984  7.448777042
 END Ephemeris 
